NUSAT-49 (KLARA DAN VO*)
1 60500U 24149AJ  26132.81951273  .00005868  00000+0  20315-3 0  9991
2 60500  97.3780 214.3471 0003957  73.2586 286.9089 15.30242232 96724
FLOCK 4BE-11            
1 60501U 24149AK  26132.95371946  .00011491  00000+0  27340-3 0  9994
2 60501  97.3701 216.7303 0004379  62.5811 297.5881 15.41786432 96926
YAM-7                   
1 60504U 24149AN  26132.77617494  .00004825  00000+0  16205-3 0  9999
2 60504  97.3787 213.1835 0004808  72.8403 287.3365 15.31315808 96638
FLOCK 4BE-24            
1 60505U 24149AP  26132.68089956  .00011653  00000+0  27773-3 0  9995
2 60505  97.3717 216.7021 0004559  71.1936 288.9805 15.41729198 96890
LUR-1                   
1 60506U 24149AQ  26132.79261509  .00004545  00000+0  16092-3 0  9998
2 60506  97.3742 211.8900 0005595  78.9787 281.2083 15.29629060 96562
TANAGER-1               
1 60507U 24149AR  26132.85608400  .00009815  00000+0  21304-3 0  9998
2 60507  97.3206 226.9871 0006105  73.8372 286.3549 15.44565742 97583
EAGLEEYE                
1 60508U 24149AS  26132.80982736  .00048840  00000+0  49425-3 0  9996
2 60508  97.3724 224.3652 0001900  52.4399 307.7033 15.65152267 97390
FLOCK 4BE-29            
1 60509U 24149AT  26132.78317587  .00011007  00000+0  25193-3 0  9991
2 60509  97.3807 218.1572 0003844  82.2143 277.9541 15.42964850 96959
TRANSPORTER-11 OBJECT AU
1 60510U 24149AU  26132.76812737  .00009444  00000+0  24491-3 0  9990
2 60510  97.3729 216.2348 0004743  70.7768 289.3990 15.39215708 96860
FLOCK 4BE-2             
1 60511U 24149AV  26132.95648936  .00033145  00000+0  61097-3 0  9998
2 60511  97.3823 219.3551 0003603  80.6218 279.5440 15.49069149 97049
FLOCK 4BE-13            
1 60512U 24149AW  26132.83979774  .00009473  00000+0  23232-3 0  9999
2 60512  97.3721 216.9118 0004727  54.1018 306.0666 15.40921015 96923
FLOCK 4BE-27            
1 60513U 24149AX  26132.77651674  .00005749  00000+0  17815-3 0  9991
2 60513  97.3827 214.6285 0005323  79.4743 280.7099 15.33818390 96717
FLOCK 4BE-9             
1 60514U 24149AY  26132.81261236  .00010239  00000+0  26104-3 0  9999
2 60514  97.3790 216.7722 0003994  83.5061 276.6639 15.39718262 96871
FLOCK 4BE-6             
1 60516U 24149BA  26132.81457303  .00009249  00000+0  24480-3 0  9997
2 60516  97.3790 216.1967 0004737  79.3165 280.8613 15.38593340 96834
FLOCK 4BE-14            
1 60517U 24149BB  26132.95911108  .00011123  00000+0  28170-3 0  9995
2 60517  97.3697 216.4506 0005554  75.7440 284.4423 15.39888626 96909
FLOCK 4BE-1             
1 60518U 24149BC  26132.81595225  .00010413  00000+0  25114-3 0  9995
2 60518  97.3781 217.4597 0005070  76.2843 283.8968 15.41398433 96925
FLOCK 4BE-28            
1 60519U 24149BD  26132.68792346  .00012154  00000+0  27157-3 0  9997
2 60519  97.3746 217.9467 0005147  71.2028 288.9778 15.43651765 96964
IPERDRONE.0             
1 60520U 24149BE  26132.79929899  .00042218  00000+0  48515-3 0  9991
2 60520  97.3774 224.4051 0001586  42.2107 317.9273 15.61925158 97388
TRANSPORTER-11 OBJECT BF
1 60521U 24149BF  26132.80202056  .00095901  00000+0  71307-3 0  9995
2 60521  97.3780 226.3819 0000643 327.6294  32.4930 15.72534341 97504
CONNECTA IOT-2          
1 60522U 24149BG  26132.65419089  .00002898  00000+0  12372-3 0  9995
2 60522  97.3843 211.3465 0008168  91.5878 268.6295 15.23662682 96480
PTD-R (TYVAK-0127)      
1 60523U 24149BH  26132.82635207  .00134543  00000+0  49607-3 0  9991
2 60523  97.3772 230.4363 0001314 221.7677 138.3495 15.87865500 97795
CONNECTA IOT-4          
1 60524U 24149BJ  26132.95777733  .00011403  00000+0  27997-3 0  9994
2 60524  97.3800 216.9489 0006203  67.8575 292.3330 15.40824290 96905
ORESAT0.5               
1 60525U 24149BK  26132.67604868  .00012255  00000+0  27296-3 0  9990
2 60525  97.3718 218.1721 0006180  58.9810 301.2044 15.43738333 96990
DEIMOS                  
1 60526U 24149BL  26132.81911104  .00011494  00000+0  26301-3 0  9991
2 60526  97.3779 218.4735 0006316  64.1888 296.0011 15.42949061 96997
CUAVA-2                 
1 60527U 24149BM  26132.76639929  .00007925  00000+0  23343-3 0  9995
2 60527  97.3726 214.2492 0007856  67.6328 292.5747 15.35286702 96738
ERNST                   
1 60528U 24149BN  26132.79246507  .00008994  00000+0  24062-3 0  9991
2 60528  97.3808 216.2742 0007232  71.2802 288.9228 15.38257170 96830
TORO                    
1 60530U 24149BQ  26132.66453649  .00000901  00000+0  84825-4 0  9991
2 60530  97.6789 207.9978 0001590  96.1485 263.9918 14.96286998 94645
HYPSO-2                 
1 60531U 24149BR  26132.94826838  .00001636  00000+0  14129-3 0  9992
2 60531  97.6817 209.7245 0002275 111.0615 249.0851 14.98608953 94774
LEMU NGE                
1 60532U 24149BS  26132.64169257  .00001179  00000+0  11355-3 0  9995
2 60532  97.6847 208.3221 0002540 112.8262 247.3227 14.94802808 94644
LEMUR-2-STELLA          
1 60533U 24149BT  26132.92634115  .00006982  00000+0  42171-3 0  9994
2 60533  97.6734 215.2512 0001917 123.6482 236.4930 15.11014608 95173
